NORAD_CAT_ID,OBJECT_NAME,OBJECT_TYPE,EPOCH,MEAN_MOTION,ECCENTRICITY,INCLINATION,RA_OF_ASC_NODE,ARG_OF_PERICENTER,MEAN_ANOMALY,BSTAR,MEAN_MOTION_DOT,MEAN_MOTION_DDOT,TLE_LINE0,TLE_LINE1,TLE_LINE2,SEMIMAJOR_AXIS,PERIOD,APOGEE,PERIGEE,DECAYED
52990.0,STARLINK-4286,PAYLOAD,2022-08-15 16:00:00,15.26474267,0.0001655,53.2175,189.557,46.4628,103.3169,-0.046449,-0.01119814,0.0,0 STARLINK-4286,1 52990U 22076E   22227.66667824 -.01119814  00000-0 -46449-1 0  9997,2 52990  53.2175 189.5570 0001655  46.4628 103.3169 15.26474267  6612,6864.499,94.335,487.5,485.228,0.0
52990.0,STARLINK-4286,PAYLOAD,2022-08-15 22:00:00,15.25872207,0.0001601,53.2174,188.4045,45.5382,38.553,-0.047295,-0.01119536,0.0,0 STARLINK-4286,1 52990U 22076E   22227.91667824 -.01119536  00000-0 -47295-1 0  9996,2 52990  53.2174 188.4045 0001601  45.5382  38.5530 15.25872207  1301,6866.305,94.372,489.269,487.07,0.0
52990.0,STARLINK-4286,PAYLOAD,2022-08-16 14:00:01,15.24267833,0.0001683,53.2174,185.3383,46.5319,99.7363,-0.049761,-0.01136774,0.0,0 STARLINK-4286,1 52990U 22076E   22228.58334491 -.01136774  00000-0 -49761-1 0  9994,2 52990  53.2174 185.3383 0001683  46.5319  99.7363 15.24267833  1308,6871.121999999999,94.472,494.143,491.83,0.0
52990.0,STARLINK-4286,PAYLOAD,2022-08-16 22:00:00,15.23463775,0.0001784,53.2176,183.8072,45.5518,130.3584,-0.050851,-0.01134246,0.0,0 STARLINK-4286,1 52990U 22076E   22228.91667824 -.01134246  00000-0 -50851-1 0  9994,2 52990  53.2176 183.8072 0001784  45.5518 130.3584 15.23463775  1309,6873.5390000000025,94.521,496.631,494.17800000000005,0.0
52990.0,STARLINK-4286,PAYLOAD,2022-08-17 14:00:01,15.21859649,0.0001656,53.2175,180.7518,48.4142,183.8842,-0.053499,-0.01137409,0.0,0 STARLINK-4286,1 52990U 22076E   22229.58334491 -.01137409  00000-0 -53499-1 0  9994,2 52990  53.2175 180.7518 0001656  48.4142 183.8842 15.21859649  1309,6878.369000000002,94.621,501.37300000000016,499.094,0.0
52990.0,STARLINK-4286,PAYLOAD,2022-08-18 14:00:01,15.19452954,0.000153,53.2177,176.1818,43.9964,265.6489,-0.057609,-0.01140794,0.0,0 STARLINK-4286,1 52990U 22076E   22230.58334491 -.01140794  00000-0 -57609-1 0  9994,2 52990  53.2177 176.1818 0001530  43.9964 265.6489 15.19452954  1307,6885.63,94.771,508.548,506.441,0.0
52990.0,STARLINK-4286,PAYLOAD,2022-08-18 22:00:00,15.18646744,0.0001528,53.2176,174.6628,46.4595,287.0391,-0.058613,-0.01134261,0.0,0 STARLINK-4286,1 52990U 22076E   22230.91667824 -.01134261  00000-0 -58613-1 0  9998,2 52990  53.2176 174.6628 0001528  46.4595 287.0391 15.18646744  1304,6888.066999999999,94.821,510.984,508.879,0.0
52990.0,STARLINK-4286,PAYLOAD,2022-08-19 14:00:01,15.17041022,0.0001593,53.2175,171.6298,40.2024,338.1075,-0.061475,-0.01135539,0.0,0 STARLINK-4286,1 52990U 22076E   22231.58334491 -.01135539  00000-0 -61475-1 0  9992,2 52990  53.2175 171.6298 0001593  40.2024 338.1075 15.17041022  1308,6892.926,94.922,515.889,513.693,0.0
52990.0,STARLINK-4286,PAYLOAD,2022-08-19 22:00:00,15.16237989,0.0001823,53.2175,170.1161,34.7417,4.5262,-0.062848,-0.01134541,0.0,0 STARLINK-4286,1 52990U 22076E   22231.91667824 -.01134541  00000-0 -62848-1 0  9995,2 52990  53.2175 170.1161 0001823  34.7417   4.5262 15.16237989  1301,6895.36,94.972,518.482,515.9680000000002,0.0
52990.0,STARLINK-4286,PAYLOAD,2022-08-20 14:00:01,15.14630807,0.0001694,53.2175,167.09400000000005,40.7841,37.5068,-0.065692,-0.01132812,0.0,0 STARLINK-4286,1 52990U 22076E   22232.58334491 -.01132812  00000-0 -65692-1 0  9999,2 52990  53.2175 167.0940 0001694  40.7841  37.5068 15.14630807  1309,6900.236999999999,95.073,523.271,520.933,0.0
52990.0,STARLINK-4286,PAYLOAD,2022-08-20 22:00:00,15.13828704,0.0001834,53.2175,165.5861,39.2669,57.0872,-0.067261,-0.01133733,0.0,0 STARLINK-4286,1 52990U 22076E   22232.91667824 -.01133733  00000-0 -67261-1 0  9992,2 52990  53.2175 165.5861 0001834  39.2669  57.0872 15.13828704  7402,6902.674,95.123,525.805,523.273,0.0
52990.0,STARLINK-4286,PAYLOAD,2022-08-21 14:00:01,15.12221103,0.0001829,53.2175,162.5751,40.8563,88.7319,-0.0701779999999999,-0.01130764,0.0,0 STARLINK-4286,1 52990U 22076E   22233.58334491 -.01130764  00000-0 -70178-1 0  9999,2 52990  53.2175 162.5751 0001829  40.8563  88.7319 15.12221103  1301,6907.565,95.224,530.693,528.1669999999998,0.0
52990.0,STARLINK-4286,PAYLOAD,2022-08-21 22:00:00,15.11419185,0.0001986,53.2176,161.0729,38.2411,106.5159,-0.071877,-0.01132336,0.0,0 STARLINK-4286,1 52990U 22076E   22233.91667824 -.01132336  00000-0 -71877-1 0  9999,2 52990  53.2176 161.0729 0001986  38.2411 106.5159 15.11419185  1307,6910.0080000000025,95.275,533.245,530.501,0.0
52990.0,STARLINK-4286,PAYLOAD,2022-08-22 12:00:00,15.09981355,0.0001674,53.2175,158.4473,43.4758,35.5139,-0.06971,-0.01060644,0.0,0 STARLINK-4286,1 52990U 22076E   22234.50001157 -.01060644  00000-0 -69710-1 0  9991,2 52990  53.2175 158.4473 0001674  43.4758  35.5139 15.09981355  1307,6914.394,95.365,537.4159999999998,535.101,0.0
52990.0,STARLINK-4286,PAYLOAD,2022-08-22 22:00:00,15.08979539,0.0001686999999999,53.2177,156.5758,43.9757,140.5254,-0.014032,-0.00217764,0.0,0 STARLINK-4286,1 52990U 22076E   22234.91667824 -.00217764  00000-0 -14032-1 0  9998,2 52990  53.2177 156.5758 0001687  43.9757 140.5254 15.08979539  7718,6917.454000000002,95.429,540.486,538.1519999999998,0.0
52990.0,STARLINK-4286,PAYLOAD,2022-08-23 06:00:00,15.08840891,0.0001786999999999,53.2188,155.0785,49.5111,146.6594,-0.00095251,-0.00015416,0.0,0 STARLINK-4286,1 52990U 22076E   22235.25001157 -.00015416  00000-0 -95251-3 0  9991,2 52990  53.2188 155.0785 0001787  49.5111 146.6594 15.08840891  7768,6917.878000000002,95.437,540.979,538.506,0.0
52990.0,STARLINK-4286,PAYLOAD,2022-08-23 14:00:01,15.0882619,0.0001641999999999,53.2215,153.5772,48.6998,159.0864,0.0014608,0.00023028,0.0,0 STARLINK-4286,1 52990U 22076E   22235.58334491  .00023028  00000-0  14608-2 0  9999,2 52990  53.2215 153.5772 0001642  48.6998 159.0864 15.08826190  1309,6917.9230000000025,95.438,540.924,538.6519999999998,0.0
52990.0,STARLINK-4286,PAYLOAD,2022-08-23 22:00:01,15.08857086,0.0001792,53.2216,152.0819,51.7799,167.6522,-0.0055912,-0.00088226,0.0,0 STARLINK-4286,1 52990U 22076E   22235.91668981 -.00088226  00000-0 -55912-2 0  9996,2 52990  53.2216 152.0819 0001792  51.7799 167.6522 15.08857086  1300,6917.828,95.436,540.933,538.453,0.0
52990.0,STARLINK-4286,PAYLOAD,2022-08-24 14:00:01,15.08786206,0.0001768,53.2213,149.089,53.1764,189.3259,0.0045904,0.00073422,0.0,0 STARLINK-4286,1 52990U 22076E   22236.58334491  .00073422  00000-0  45904-2 0  9996,2 52990  53.2213 149.0890 0001768  53.1764 189.3259 15.08786206  1306,6918.045,95.441,541.133,538.687,0.0
52990.0,STARLINK-4286,PAYLOAD,2022-08-24 16:00:00,15.08771728,0.0001798,53.2212,148.7148,55.8191,279.5742,0.0057293,0.00091913,0.0,0 STARLINK-4286,1 52990U 22076E   22236.66667824  .00091913  00000-0  57293-2 0  9993,2 52990  53.2212 148.7148 0001798  55.8191 279.5742 15.08771728  7974,6918.089,95.442,541.198,538.71,0.0
52990.0,STARLINK-4286,PAYLOAD,2022-08-24 22:00:00,15.08845783,0.0001864,53.2203,147.5948,53.6717,200.3719,-0.001277,-0.00020558,0.0,0 STARLINK-4286,1 52990U 22076E   22236.91667824 -.00020558  00000-0 -12770-2 0  9991,2 52990  53.2203 147.5948 0001864  53.6717 200.3719 15.08845783  1303,6917.863,95.437,541.0169999999998,538.438,0.0
52990.0,STARLINK-4286,PAYLOAD,2022-08-25 06:00:02,15.08827096,0.0001937,53.2211,146.0986,48.28100000000001,217.4207,0.0017102999999999,0.00027027,0.0,0 STARLINK-4286,1 52990U 22076E   22237.25002315  .00027027  00000-0  17103-2 0  9998,2 52990  53.2211 146.0986 0001937  48.2810 217.4207 15.08827096  8061,6917.92,95.438,541.125,538.445,0.0
52990.0,STARLINK-4286,PAYLOAD,2022-08-25 14:00:01,15.08820442,0.0001814,53.2212,144.6007,54.3034,222.936,0.00258,0.0004099,0.0,0 STARLINK-4286,1 52990U 22076E   22237.58334491  .00040990  00000-0  25800-2 0  9994,2 52990  53.2212 144.6007 0001814  54.3034 222.9360 15.08820442  1309,6917.94,95.439,541.06,538.55,0.0
52990.0,STARLINK-4286,PAYLOAD,2022-08-25 22:00:00,15.08859385,0.0001939,53.2213,143.1056,54.0266,234.799,-0.0015482999999999,-0.00024858,0.0,0 STARLINK-4286,1 52990U 22076E   22237.91667824 -.00024858  00000-0 -15483-2 0  9993,2 52990  53.2213 143.1056 0001939  54.0266 234.7990 15.08859385  8169,6917.821,95.436,541.028,538.345,0.0
52990.0,STARLINK-4286,PAYLOAD,2022-08-26 14:00:01,15.08829215,0.0001911999999999,53.2214,140.1121,55.8751,256.2351,0.002921,0.00046493,0.0,0 STARLINK-4286,1 52990U 22076E   22238.58335648  .00046493  00000-0  29210-2 0  9993,2 52990  53.2214 140.1121 0001912  55.8751 256.2351 15.08829215  1307,6917.913000000001,95.438,541.101,538.456,0.0
52990.0,STARLINK-4286,PAYLOAD,2022-08-26 22:00:00,15.08880572,0.0002016,53.2215,138.6171,54.2439,269.4035,-0.0030539,-0.00048618,0.0,0 STARLINK-4286,1 52990U 22076E   22238.91667824 -.00048618  00000-0 -30539-2 0  9993,2 52990  53.2215 138.6171 0002016  54.2439 269.4035 15.08880572  1305,6917.755999999999,95.435,541.016,538.227,0.0
52990.0,STARLINK-4286,PAYLOAD,2022-08-27 14:00:01,15.08817731,0.0001905,53.2216,135.6235,55.5082,291.3711,0.003244,0.00051688,0.0,0 STARLINK-4286,1 52990U 22076E   22239.58334491  .00051688  00000-0  32440-2 0  9990,2 52990  53.2216 135.6235 0001905  55.5082 291.3711 15.08817731  1300,6917.948,95.439,541.131,538.496,0.0
52990.0,STARLINK-4286,PAYLOAD,2022-08-27 22:00:00,15.08861125,0.0002045999999999,53.2217,134.1286,53.4094,305.0576,-0.0013868,-0.00022305,0.0,0 STARLINK-4286,1 52990U 22076E   22239.91667824 -.00022305  00000-0 -13868-2 0  9995,2 52990  53.2217 134.1286 0002046  53.4094 305.0576 15.08861125  8460,6917.816,95.436,541.096,538.265,0.0
52990.0,STARLINK-4286,PAYLOAD,2022-08-28 14:00:01,15.08812272,0.0001858,53.2218,131.1348,55.2995,326.3992,0.0034145,0.00054432,0.0,0 STARLINK-4286,1 52990U 22076E   22240.58334491  .00054432  00000-0  34145-2 0  9996,2 52990  53.2218 131.1348 0001858  55.2995 326.3992 15.08812272  1300,6917.965,95.439,541.116,538.545,0.0
